IRIDIUM 119             
1 42959U 17061E   25037.90975239  .00000020  00000+0  16850-6 0  9992
2 42959  86.3947 232.1687 0001990  98.4270 261.7152 14.34217429383821
IRIDIUM 107             
1 42960U 17061F   25037.92879363  .00001614  00000+0  56906-3 0  9990
2 42960  86.3945 232.1794 0002436  96.0388 264.1085 14.34219540383839
IRIDIUM 132             
1 42961U 17061G   25037.93512058  .00000027  00000+0  24512-5 0  9994
2 42961  86.3941 232.1592 0002186  90.7836 269.3610 14.34217429383838
IRIDIUM 136             
1 42962U 17061H   25037.89706872  .00000042  00000+0  79049-5 0  9991
2 42962  86.3944 232.1795 0002278 100.9874 259.1578 14.34219603383842
IRIDIUM 139             
1 42963U 17061J   25037.90341857  .00000224  00000+0  73072-4 0  9993
2 42963  86.3945 232.2308 0002340  94.4883 265.6580 14.34217258383852
IRIDIUM 125             
1 42964U 17061K   25037.96049865  .00000160  00000+0  50038-4 0  9990
2 42964  86.3948 232.2589 0002128 107.8922 252.2506 14.34219387383871
IRIDIUM 135             
1 43070U 17083A   25037.86485192  .00000185  00000+0  58991-4 0  9992
2 43070  86.4029 169.0474 0001954  90.6082 269.5338 14.34216744373151
IRIDIUM 138             
1 43071U 17083B   25037.75067980  .00000148  00000+0  45625-4 0  9991
2 43071  86.4019 168.7833 0001678 113.3402 246.7971 14.34220304373122
